[{"OBJECT_NAME":"SDA_1674","OBJECT_ID":"2025-230L","EPOCH":"2026-03-09T17:39:14.953536","MEAN_MOTION":13.85421025,"ECCENTRICITY":0.00045935,"INCLINATION":81.3001,"RA_OF_ASC_NODE":303.8213,"ARG_OF_PERICENTER":113.5479,"MEAN_ANOMALY":246.6161,"EPHEMERIS_TYPE":0,"CLASSIFICATION_TYPE":"U","NORAD_CAT_ID":65984,"ELEMENT_SET_NO":999,"REV_AT_EPOCH":2005,"BSTAR":0.00028416236,"MEAN_MOTION_DOT":3.35e-6,"MEAN_MOTION_DDOT":0},{"OBJECT_NAME":"FENGYUN 1C DEB","OBJECT_ID":"1999-025AQR","EPOCH":"2026-03-09T17:59:59.252640","MEAN_MOTION":14.00764454,"ECCENTRICITY":0.01377297,"INCLINATION":99.4177,"RA_OF_ASC_NODE":87.9231,"ARG_OF_PERICENTER":347.2261,"MEAN_ANOMALY":71.6199,"EPHEMERIS_TYPE":0,"CLASSIFICATION_TYPE":"U","NORAD_CAT_ID":30683,"ELEMENT_SET_NO":999,"REV_AT_EPOCH":96769,"BSTAR":0.0015519381,"MEAN_MOTION_DOT":2.466e-5,"MEAN_MOTION_DDOT":0}]
